[{"name": "DMSP 5D-3 F16 (USA 172)", "line1": "1 28054U 03048A   26156.21369397  .00000012  00000+0  29949-4 0  9993", "line2": "2 28054  98.9894 179.9624 0007124 171.9414 267.3369 14.14481959167799"}, {"name": "METEOSAT-9 (MSG-2)", "line1": "1 28912U 05049B   26155.75621891  .00000133  00000+0  00000+0 0  9993", "line2": "2 28912   9.3326  54.2885 0002326  39.0161 117.8525  1.00267492  6873"}, {"name": "DMSP 5D-3 F17 (USA 191)", "line1": "1 29522U 06050A   26156.14876434  .00000051  00000+0  48619-4 0  9995", "line2": "2 29522  98.7378 162.9651 0011328  90.0696 270.1775 14.14991228 10729"}, {"name": "FENGYUN 3A", "line1": "1 32958U 08026A   26156.06510943  .00000097  00000+0  66709-4 0  9998", "line2": "2 32958  98.6880  97.1252 0009084 156.0332 204.1269 14.19568584933689"}, {"name": "GOES 14", "line1": "1 35491U 09033A   26155.87977801 -.00000228  00000+0  00000+0 0  9994", "line2": "2 35491   1.6580  83.1912 0002129   0.1634 275.5400  1.00115416  6464"}, {"name": "DMSP 5D-3 F18 (USA 210)", "line1": "1 35951U 09057A   26156.11933325  .00000296  00000+0  17656-3 0  9995", "line2": "2 35951  98.9033 136.9150 0009936 288.0384  71.9706 14.14889973857882"}, {"name": "EWS-G2 (GOES 15)", "line1": "1 36411U 10008A   26156.14803852  .00000031  00000+0  00000+0 0  9997", "line2": "2 36411   1.2444  83.0567 0005521  35.6834 251.6956  1.00275922 59515"}, {"name": "COMS 1", "line1": "1 36744U 10032A   26152.73864208 -.00000334  00000+0  00000+0 0  9993", "line2": "2 36744   4.7700  75.5552 0001064 351.7830 216.9341  1.00271905 50939"}, {"name": "FENGYUN 3B", "line1": "1 37214U 10059A   26156.21516304  .00000023  00000+0  35218-4 0  9991", "line2": "2 37214  98.9618 202.1782 0021312 218.7147 224.2187 14.14838081805738"}, {"name": "SUOMI NPP", "line1": "1 37849U 11061A   26156.07595821  .00000101  00000+0  68869-4 0  9999", "line2": "2 37849  98.7951  97.0351 0002171  32.8179 327.3131 14.19514806756724"}, {"name": "METEOSAT-10 (MSG-3)", "line1": "1 38552U 12035B   26156.06416942  .00000006  00000+0  00000+0 0  9990", "line2": "2 38552   4.6426  61.0733 0001804 337.4560 238.2428  1.00275627 50732"}, {"name": "METOP-B", "line1": "1 38771U 12049A   26156.08230414  .00000127  00000+0  78072-4 0  9991", "line2": "2 38771  98.6509 207.8225 0002888  47.0763 313.0657 14.21429418711543"}, {"name": "INSAT-3D", "line1": "1 39216U 13038B   26155.87587801 -.00000327  00000+0  00000+0 0  9990", "line2": "2 39216   1.8939  82.6962 0000901 348.2073 267.2320  1.00269066 46959"}, {"name": "FENGYUN 3C", "line1": "1 39260U 13052A   26156.24132799  .00000110  00000+0  77019-4 0  9997", "line2": "2 39260  98.4981 130.6652 0015750  60.0305 300.2431 14.15752264656878"}, {"name": "METEOR-M 2", "line1": "1 40069U 14037A   26156.17928221  .00000240  00000+0  12915-3 0  9992", "line2": "2 40069  98.5112 132.3435 0007049  73.0437 287.1513 14.21458622617615"}, {"name": "HIMAWARI-8", "line1": "1 40267U 14060A   26155.94944571 -.00000263  00000+0  00000+0 0  9992", "line2": "2 40267   0.0111  27.2628 0000958  63.2128 285.3895  1.00272357 42637"}, {"name": "FENGYUN 2G", "line1": "1 40367U 14090A   26154.80052208 -.00000292  00000+0  00000+0 0  9999", "line2": "2 40367   5.6052  72.9774 0003440 153.7233  53.2439  1.00279146 41866"}, {"name": "METEOSAT-11 (MSG-4)", "line1": "1 40732U 15034A   26156.13729181  .00000075  00000+0  00000+0 0  9991", "line2": "2 40732   3.1722  71.1763 0001647   4.0243 237.1683  1.00276548  7098"}, {"name": "ELEKTRO-L 2", "line1": "1 41105U 15074A   26156.06124635 -.00000106  00000+0  00000+0 0  9991", "line2": "2 41105   6.6638  70.6705 0001332 281.5102 268.8844  1.00272317 38380"}, {"name": "SENTINEL-3A", "line1": "1 41335U 16011A   26156.15422808  .00000134  00000+0  73534-4 0  9998", "line2": "2 41335  98.6251 223.7101 0001310 105.6853 254.4472 14.26736668536346"}, {"name": "INSAT-3DR", "line1": "1 41752U 16054A   26156.07881616 -.00000065  00000+0  00000+0 0  9992", "line2": "2 41752   0.0756  88.1143 0010286 187.0212  80.7580  1.00270740 35694"}, {"name": "HIMAWARI-9", "line1": "1 41836U 16064A   26155.62350534 -.00000263  00000+0  00000+0 0  9996", "line2": "2 41836   0.0411 168.7325 0001540 312.7214 136.8363  1.00270307 35088"}, {"name": "GOES 16", "line1": "1 41866U 16071A   26156.11469631 -.00000079  00000+0  00000+0 0  9996", "line2": "2 41866   0.3093  85.6480 0000632 318.4391 146.0983  1.00271137 34980"}, {"name": "FENGYUN 4A", "line1": "1 41882U 16077A   26155.94606568 -.00000345  00000+0  00000+0 0  9998", "line2": "2 41882   2.2918  80.4171 0008161 151.7274 125.5576  1.00276196 34809"}, {"name": "CYGFM05", "line1": "1 41884U 16078A   26155.92834576  .00026590  00000+0  36756-3 0  9991", "line2": "2 41884  34.9579 341.7330 0007466  25.4893 334.6198 15.56102645526843"}, {"name": "CYGFM04", "line1": "1 41885U 16078B   26156.12842470  .00033178  00000+0  38343-3 0  9991", "line2": "2 41885  34.9333 308.6975 0006082  72.7608 287.3782 15.60808500527113"}, {"name": "CYGFM02", "line1": "1 41886U 16078C   26155.83257561  .00037081  00000+0  38298-3 0  9996", "line2": "2 41886  34.9415 305.5592 0007124  72.1577 287.9926 15.63661383527231"}, {"name": "CYGFM01", "line1": "1 41887U 16078D   26155.92233524  .00027778  00000+0  37461-3 0  9993", "line2": "2 41887  34.9409 342.9283 0007301  19.1712 340.9286 15.56759527526795"}, {"name": "CYGFM08", "line1": "1 41888U 16078E   26155.83853039  .00029160  00000+0  35656-3 0  9994", "line2": "2 41888  34.9441 323.3834 0008176  51.8334 308.3127 15.59338137527045"}, {"name": "CYGFM07", "line1": "1 41890U 16078G   26156.11854666  .00030996  00000+0  37735-3 0  9995", "line2": "2 41890  34.9456 309.8743 0006528  71.5707 288.5727 15.59459520527117"}, {"name": "CYGFM03", "line1": "1 41891U 16078H   26155.76940545  .00029685  00000+0  36188-3 0  9992", "line2": "2 41891  34.9411 314.1371 0006099  54.5809 305.5485 15.59433427527032"}]